INTELSAT 10 (IS-10)     
1 26766U 01019A   26060.33551906 -.00000287  00000+0  00000+0 0  9990
2 26766   8.8184  60.3522 0006029 263.3849 112.9677  0.99042199 44518
INTELSAT 902 (IS-902)   
1 26900U 01039A   26060.43717951 -.00000299  00000+0  00000+0 0  9990
2 26900   5.8449  73.0995 0004613 271.5103 281.9066  1.00271353 89613
INTELSAT 904 (IS-904)   
1 27380U 02007A   26060.29825221 -.00000242  00000+0  00000+0 0  9991
2 27380   6.6510  70.4779 0005975 304.7857 219.6908  1.00270605 50689
DIRECTV 5 (TEMPO 1)     
1 27426U 02023A   26060.40058707 -.00000074  00000+0  00000+0 0  9993
2 27426   4.6027  76.6579 0003572 266.6580 209.9786  1.00271759 87044
INTELSAT 905 (IS-905)   
1 27438U 02027A   26057.06815963  .00000083  00000+0  00000+0 0  9992
2 27438   6.4740  71.1375 0003033 266.5056  65.6055  1.00272444 50242
GALAXY 3C (G-3C)        
1 27445U 02030A   26059.57264626 -.00000170  00000+0  00000+0 0  9994
2 27445   3.4547  79.5120 0000807  37.3162 152.8592  1.00271161 45402
INTELSAT 906 (IS-906)   
1 27513U 02041A   26060.17457834 -.00000004  00000+0  00000+0 0  9991
2 27513   5.5280  74.2541 0003283 253.1119 318.5971  1.00272294 85948
GALAXY 13 (HORIZONS-1)  
1 27954U 03044A   26060.52717860  .00000115  00000+0  00000+0 0  9993
2 27954   1.1394  85.3522 0002171 256.5176 217.2129  1.00271280 45492
INTELSAT 10-02          
1 28358U 04022A   26060.37564590 -.00000030  00000+0  00000+0 0  9999
2 28358   0.0167 118.2976 0001053 244.9884 290.0998  1.00270198 79476
DIRECTV 8               
1 28659U 05019A   26060.51352645 -.00000017  00000+0  00000+0 0  9997
2 28659   0.0153 136.5481 0003261 214.2172 234.3369  1.00271885 75992
GALAXY 28 (G-28)        
1 28702U 05022A   26060.44177288 -.00000219  00000+0  00000+0 0  9994
2 28702   3.0220  80.2906 0003090 257.7964 313.0739  1.00258494 50896
GALAXY 16 (G-16)        
1 29236U 06023A   26060.35623248 -.00000145  00000+0  00000+0 0  9999
2 29236   0.0384 218.9861 0002331 133.6549 195.7311  1.00270023 71891
DIRECTV 9S              
1 29494U 06043A   26060.42712615 -.00000131  00000+0  00000+0 0  9997
2 29494   2.1426  82.2398 0003135 261.2242 228.3051  1.00271241 50305
GALAXY 17 (G-17)        
1 31307U 07016B   26060.43033281 -.00000224  00000+0  00000+0 0  9993
2 31307   2.6990  81.2796 0003278 256.5111 251.3404  1.00270730 68728
DIRECTV 10              
1 31862U 07032A   26060.38985931  .00000006  00000+0  00000+0 0  9996
2 31862   0.1238 101.7296 0006486 270.0678 358.3961  0.98335599 44505
INTELSAT 11 (IS-11)     
1 32253U 07044B   26060.51429142  .00000055  00000+0  00000+0 0  9990
2 32253   3.2849  79.9969 0005482 203.3840 300.2988  0.99047727 67380
HORIZONS-2              
1 32388U 07063B   26060.43249949 -.00000271  00000+0  00000+0 0  9997
2 32388   2.3242  81.9918 0002893 248.8593 270.2706  1.00272338 66738
DIRECTV 11              
1 32729U 08013A   26060.33641933 -.00000144  00000+0  00000+0 0  9999
2 32729   0.0021 272.5400 0000284  75.0890 193.4078  1.00271371 44519
GALAXY 18 (G-18)        
1 32951U 08024A   26060.51560539  .00000007  00000+0  00000+0 0  9997
2 32951   0.0191 230.4838 0003061 121.2849 230.1400  1.00272603 44771
INTELSAT 25 (IS-25)     
1 33153U 08034A   26060.44090620 -.00000242  00000+0  00000+0 0  9996
2 33153   2.4296  81.6576 0003913 238.3080 326.4878  1.00270855 64616
GALAXY 19 (G-19)        
1 33376U 08045A   26060.42790615 -.00000157  00000+0  00000+0 0  9999
2 33376   0.0566 267.6924 0003069  80.8304 227.7203  1.00271884 63821
FM-5                    
1 35493U 09034A   26060.43007281 -.00000218  00000+0  00000+0 0  9999
2 35493   0.0420 276.7681 0001217 303.8907   7.2160  1.00268355 45566
INTELSAT 14 (IS-14)     
1 36097U 09064A   26060.43821953 -.00000292  00000+0  00000+0 0  9995
2 36097   0.0137 100.4921 0002533 249.3767 282.1062  1.00272003 59523
INTELSAT 15 (IS-15)     
1 36106U 09067A   26060.39271933 -.00000203  00000+0  00000+0 0  9993
2 36106   0.0166  97.8739 0002366 245.0261  42.8031  1.00271651 40141
DIRECTV 12              
1 36131U 09075A   26060.42677947 -.00000122  00000+0  00000+0 0  9999
2 36131   0.0188 319.1212 0000404  20.5356 230.4799  1.00273549 45476
INTELSAT 16 (IS-16)     
1 36397U 10006A   26060.43206617  .00000000  00000+0  00000+0 0  9996
2 36397   0.0228 132.8336 0001836 213.3485 252.4074  1.00263610 58570
XM-5                    
1 37185U 10053A   26060.49217104 -.00000043  00000+0  00000+0 0  9991
2 37185   0.0690 275.1966 0002811 273.9943  32.0778  1.00279892 56406
INTELSAT 17 (IS-17)     
1 37238U 10065B   26060.38873264 -.00000020  00000+0  00000+0 0  9991
2 37238   0.0140 160.8334 0002434 183.8879  20.3940  1.00271543 52167
INTELSAT 28 (IS-28)     
1 37392U 11016A   26060.43794685 -.00000243  00000+0  00000+0 0  9991
2 37392   1.5276  84.0238 0004536 252.2076 308.9406  1.00270727 52209
INTELSAT 18 (IS-18)     
1 37834U 11056A   26060.37037227  .00000034  00000+0  00000+0 0  9998
2 37834   0.0301 254.5731 0002055  80.4342 137.4684  1.00268473 52732
INTELSAT 22 (IS-22)     
1 38098U 12011A   26060.39011931 -.00000077  00000+0  00000+0 0  9997
2 38098   0.0246 102.7198 0001656 252.7737  16.2262  1.00271458  6105
